NORAD_CAT_ID,OBJECT_NAME,OBJECT_TYPE,EPOCH,MEAN_MOTION,ECCENTRICITY,INCLINATION,RA_OF_ASC_NODE,ARG_OF_PERICENTER,MEAN_ANOMALY,BSTAR,MEAN_MOTION_DOT,MEAN_MOTION_DDOT,TLE_LINE0,TLE_LINE1,TLE_LINE2,SEMIMAJOR_AXIS,PERIOD,APOGEE,PERIGEE,DECAYED
55284.0,STARLINK-5337,PAYLOAD,2024-08-03 13:33:18,14.98336996,0.0003095,69.9996,74.5508,267.8663,92.2142,6.5108e-05,6.84e-06,0.0,0 STARLINK-5337,1 55284U 23010R   24216.56479772  .00000684  00000-0  65108-4 0  9994,2 55284  69.9996  74.5508 0003095 267.8663  92.2142 14.98336996 85133,6950.171,96.107,574.187,569.885,0.0
55284.0,STARLINK-5337,PAYLOAD,2024-08-03 15:09:26,14.98337709,0.0003097,69.9996,74.3825,267.836,92.2444,7.6408e-05,8.19e-06,0.0,0 STARLINK-5337,1 55284U 23010R   24216.63155699  .00000819  00000-0  76408-4 0  9996,2 55284  69.9996  74.3825 0003097 267.8360  92.2444 14.98337709 85441,6950.169,96.107,574.187,569.882,0.0
55284.0,STARLINK-5337,PAYLOAD,2024-08-03 21:33:58,14.98342942,0.0003095,69.9996,73.7092,267.4812,92.5992,0.00010795,1.196e-05,0.0,0 STARLINK-5337,1 55284U 23010R   24216.89859278  .00001196  00000-0  10795-3 0  9993,2 55284  69.9996  73.7092 0003095 267.4812  92.5992 14.98342942 85486,6950.153,96.106,574.169,569.867,0.0
55284.0,STARLINK-5337,PAYLOAD,2024-08-04 13:35:19,14.98333635,0.0003005,70.001,72.0261,266.5919,93.4897,0.00021895,2.521e-05,0.0,0 STARLINK-5337,1 55284U 23010R   24217.56619662  .00002521  00000-0  21895-3 0  9995,2 55284  70.0010  72.0261 0003005 266.5919  93.4897 14.98333635 85286,6950.182,96.107,574.135,569.958,0.0
55284.0,STARLINK-5337,PAYLOAD,2024-08-04 15:11:27,14.98334183,0.0003009,70.001,71.8577,266.5128,93.5687,0.00021815,2.511e-05,0.0,0 STARLINK-5337,1 55284U 23010R   24217.63295618  .00002511  00000-0  21815-3 0  9995,2 55284  70.0010  71.8577 0003009 266.5128  93.5687 14.98334183 85590,6950.18,96.107,574.136,569.954,0.0
55284.0,STARLINK-5337,PAYLOAD,2024-08-04 21:35:59,14.9834403,0.0002905,70.0011,71.1848,264.3235,95.7593,0.00039835,4.665e-05,0.0,0 STARLINK-5337,1 55284U 23010R   24217.89999110  .00004665  00000-0  39835-3 0  9994,2 55284  70.0011  71.1848 0002905 264.3235  95.7593 14.98344030 85631,6950.15,96.106,574.034,569.995,0.0
55284.0,STARLINK-5337,PAYLOAD,2024-08-05 00:48:15,14.98350775,0.0002895,70.0014,70.8482,264.5665,95.5163,0.00052557,6.187e-05,0.0,0 STARLINK-5337,1 55284U 23010R   24218.03350807  .00006187  00000-0  52557-3 0  9992,2 55284  70.0014  70.8482 0002895 264.5665  95.5163 14.98350775 85354,6950.129,96.106,574.006,569.982,0.0
55284.0,STARLINK-5337,PAYLOAD,2024-08-05 07:12:47,14.9834073,0.0003008,70.0009,70.1708,280.1952,79.8868,0.00018814,2.153e-05,0.0,0 STARLINK-5337,1 55284U 23010R   24218.30055070  .00002153  00000-0  18814-3 0  9993,2 55284  70.0009  70.1708 0003008 280.1952  79.8868 14.98340730 85393,6950.16,96.106,574.115,569.934,0.0
55284.0,STARLINK-5337,PAYLOAD,2024-08-05 20:01:52,14.98331403,0.000311,70.0016,68.8269,268.0756,92.0047,-0.00040136,-4.879e-05,0.0,0 STARLINK-5337,1 55284U 23010R   24218.83463330 -.00004879  00000-0 -40136-3 0  9994,2 55284  70.0016  68.8269 0003110 268.0756  92.0047 14.98331403 85470,6950.189,96.107,574.215,569.892,0.0
55284.0,STARLINK-5337,PAYLOAD,2024-08-06 07:14:48,14.9832953,0.0002608,70.0015,67.6502,254.4489,105.6382,4.6865e-06,-3.7e-07,0.0,0 STARLINK-5337,1 55284U 23010R   24219.30195502 -.00000037  00000-0  46865-5 0  9998,2 55284  70.0015  67.6502 0002608 254.4489 105.6382 14.98329530 85841,6950.194,96.107,573.872,570.247,0.0
55284.0,STARLINK-5337,PAYLOAD,2024-08-06 20:03:53,14.98329603,0.000277,70.0013,66.3032,264.7889,95.2954,2.0308e-05,1.49e-06,0.0,0 STARLINK-5337,1 55284U 23010R   24219.83603517  .00000149  00000-0  20308-4 0  9992,2 55284  70.0013  66.3032 0002770 264.7889  95.2954 14.98329603 85627,6950.194,96.107,573.984,570.134,0.0
55284.0,STARLINK-5337,PAYLOAD,2024-08-06 21:40:01,14.98331062,0.0002708,70.0002,66.1349,261.7909,98.2943,3.7065e-05,3.49e-06,0.0,0 STARLINK-5337,1 55284U 23010R   24219.90279602  .00000349  00000-0  37065-4 0  9994,2 55284  70.0002  66.1349 0002708 261.7909  98.2943 14.98331062 85932,6950.19,96.107,573.937,570.172,0.0
55284.0,STARLINK-5337,PAYLOAD,2024-08-06 23:16:09,14.98332086,0.0002625,70.0004,65.9666,252.3214,107.7659,3.2798e-05,2.98e-06,0.0,0 STARLINK-5337,1 55284U 23010R   24219.96955486  .00000298  00000-0  32798-4 0  9992,2 55284  70.0004  65.9666 0002625 252.3214 107.7659 14.98332086 85944,6950.186,96.107,573.876,570.227,0.0
55284.0,STARLINK-5337,PAYLOAD,2024-08-07 20:05:54,14.98320654,0.0003009,70.0,63.7777,263.6388,96.4429,-3.9729e-05,-5.67e-06,0.0,0 STARLINK-5337,1 55284U 23010R   24220.83743443 -.00000567  00000-0 -39729-4 0  9990,2 55284  70.0000  63.7777 0003009 263.6388  96.4429 14.98320654 85771,6950.222,96.108,574.178,569.995,0.0
55284.0,STARLINK-5337,PAYLOAD,2024-08-08 13:43:23,14.98324077,0.0002924,70.0004,61.927,262.4567,97.626,1.5637e-05,9.4e-07,0.0,0 STARLINK-5337,1 55284U 23010R   24221.57179532  .00000094  00000-0  15637-4 0  9999,2 55284  70.0004  61.9270 0002924 262.4567  97.6260 14.98324077 86189,6950.211,96.107,574.108,570.044,0.0
55284.0,STARLINK-5337,PAYLOAD,2024-08-08 21:44:03,14.98326356,0.0002678,70.0016,61.0877,244.1043,115.984,4.8448e-05,4.85e-06,0.0,0 STARLINK-5337,1 55284U 23010R   24221.90559364  .00000485  00000-0  48448-4 0  9991,2 55284  70.0016  61.0877 0002678 244.1043 115.9840 14.98326356 85930,6950.204,96.107,573.93,570.208,0.0
55284.0,STARLINK-5337,PAYLOAD,2024-08-09 13:45:23,14.98323551,0.0002885,70.0016,59.4015,259.3119,100.7715,0.00031662,3.686e-05,0.0,0 STARLINK-5337,1 55284U 23010R   24222.57319186  .00003686  00000-0  31662-3 0  9996,2 55284  70.0016  59.4015 0002885 259.3119 100.7715 14.98323551 86339,6950.213,96.107,574.083,570.073,0.0
55284.0,STARLINK-5337,PAYLOAD,2024-08-09 21:46:04,14.98325614,0.0002944,70.0019,58.5599,269.296,90.7861,0.00063925,7.542e-05,0.0,0 STARLINK-5337,1 55284U 23010R   24222.90699558  .00007542  00000-0  63925-3 0  9999,2 55284  70.0019  58.5599 0002944 269.2960  90.7861 14.98325614 86386,6950.206,96.107,574.118,570.025,0.0
55284.0,STARLINK-5337,PAYLOAD,2024-08-09 23:22:12,14.9833161,0.0002869,70.0023,58.3916,265.875,94.2081,0.00049132,5.774e-05,0.0,0 STARLINK-5337,1 55284U 23010R   24222.97375279  .00005774  00000-0  49132-3 0  9996,2 55284  70.0023  58.3916 0002869 265.8750  94.2081 14.98331610 86091,6950.188,96.107,574.047,570.059,0.0
55284.0,STARLINK-5337,PAYLOAD,2024-08-10 13:47:24,14.98329212,0.0002797,70.0027,56.8772,267.7836,92.3003,0.00021433,2.465e-05,0.0,0 STARLINK-5337,1 55284U 23010R   24223.57459441  .00002465  00000-0  21433-3 0  9995,2 55284  70.0027  56.8772 0002797 267.7836  92.3003 14.98329212 86485,6950.195,96.107,574.004,570.116,0.0
55284.0,STARLINK-5337,PAYLOAD,2024-08-10 20:11:57,14.98331304,0.000267,70.0027,56.2042,263.9407,96.1447,0.00029655,3.447e-05,0.0,0 STARLINK-5337,1 55284U 23010R   24223.84163427  .00003447  00000-0  29655-3 0  9996,2 55284  70.0027  56.2042 0002670 263.9407  96.1447 14.98331304 86222,6950.189,96.107,573.91,570.198,0.0
55284.0,STARLINK-5337,PAYLOAD,2024-08-10 21:48:05,14.98331559,0.0002759,70.0027,56.0358,266.4668,93.6175,0.00033932,3.958e-05,0.0,0 STARLINK-5337,1 55284U 23010R   24223.90839425  .00003958  00000-0  33932-3 0  9991,2 55284  70.0027  56.0358 0002759 266.4668  93.6175 14.98331559 86531,6950.188,96.107,573.971,570.136,0.0
55284.0,STARLINK-5337,PAYLOAD,2024-08-11 21:50:06,14.98335335,0.0002883,70.0036,53.5106,267.6147,92.4682,0.00013968,1.574e-05,0.0,0 STARLINK-5337,1 55284U 23010R   24224.90979299  .00001574  00000-0  13968-3 0  9995,2 55284  70.0036  53.5106 0002883 267.6147  92.4682 14.98335335 86689,6950.176,96.107,574.045,570.038,0.0
55284.0,STARLINK-5337,PAYLOAD,2024-08-12 12:15:18,14.98336464,0.0002717,70.0031,51.9963,265.9441,94.1407,0.0002494,2.885e-05,0.0,0 STARLINK-5337,1 55284U 23010R   24225.51063254  .00002885  00000-0  24940-3 0  9996,2 55284  70.0031  51.9963 0002717 265.9441  94.1407 14.98336464 86779,6950.173,96.107,573.926,570.15,0.0
55284.0,STARLINK-5337,PAYLOAD,2024-08-12 21:52:06,14.98348415,0.0002723,70.0034,50.9865,268.7039,91.3808,0.00056371,6.643e-05,0.0,0 STARLINK-5337,1 55284U 23010R   24225.91118760  .00006643  00000-0  56371-3 0  9992,2 55284  70.0034  50.9865 0002723 268.7039  91.3808 14.98348415 86833,6950.136,96.106,573.893,570.108,0.0
55284.0,STARLINK-5337,PAYLOAD,2024-08-13 12:17:18,14.9834635,0.0003008,69.9993,49.4708,272.7894,87.2921,0.00020701,2.379e-05,0.0,0 STARLINK-5337,1 55284U 23010R   24226.51201654  .00002379  00000-0  20701-3 0  9994,2 55284  69.9993  49.4708 0003008 272.7894  87.2921 14.98346350 86920,6950.142,96.106,574.098,569.917,0.0
55284.0,STARLINK-5337,PAYLOAD,2024-08-13 18:41:51,14.98319243,0.0003003,69.9968,48.7974,271.6311,88.4504,-0.00044519,-5.399e-05,0.0,0 STARLINK-5337,1 55284U 23010R   24226.77906808 -.00005399  00000-0 -44519-3 0  9995,2 55284  69.9968  48.7974 0003003 271.6311  88.4504 14.98319243 86668,6950.226,96.108,574.178,570.004,0.0
55284.0,STARLINK-5337,PAYLOAD,2024-08-13 21:54:07,14.98318547,0.0003066,69.9974,48.4608,271.386,88.6948,-0.00064367,-7.762e-05,0.0,0 STARLINK-5337,1 55284U 23010R   24226.91258666 -.00007762  00000-0 -64367-3 0  9992,2 55284  69.9974  48.4608 0003066 271.3860  88.6948 14.98318547 86986,6950.228,96.108,574.224,569.962,0.0
55284.0,STARLINK-5337,PAYLOAD,2024-08-14 13:55:28,14.98315416,0.000324,70.0005,46.7771,269.8855,90.1933,-0.00029543,-3.615e-05,0.0,0 STARLINK-5337,1 55284U 23010R   24227.58019088 -.00003615  00000-0 -29543-3 0  9999,2 55284  70.0005  46.7771 0003240 269.8855  90.1933 14.98315416 87082,6950.238,96.108,574.355,569.851,0.0
55284.0,STARLINK-5337,PAYLOAD,2024-08-14 18:43:53,14.98314399,0.0003227,70.0022,46.271,269.0655,91.0134,0.0013283,0.00015786,0.0,0 STARLINK-5337,1 55284U 23010R   24227.78047700  .00015786  00000-0  13283-2 0  9996,2 55284  70.0022  46.2710 0003227 269.0655  91.0134 14.98314399 86816,6950.241,96.108,574.349,569.863,0.0
